<?xml version="1.0" encoding="UTF-8"?>
<kml xmlns="http://www.opengis.net/kml/2.2">
  <Document>
    <name>R1. E01 Montserrat - Castellfgalí - Manresa</name>
    <Style id="icon-503-DB4436-normal">
      <IconStyle>
        <color>ff3644db</color>
        <scale>1.1</scale>
        <Icon>
          <href>https://www.gstatic.com/mapspro/images/stock/503-wht-blank_maps.png</href>
        </Icon>
        <hotSpot x="16" xunits="pixels" y="32" yunits="insetPixels"/>
      </IconStyle>
      <LabelStyle>
        <scale>0</scale>
      </LabelStyle>
    </Style>
    <Style id="icon-503-DB4436-highlight">
      <IconStyle>
        <color>ff3644db</color>
        <scale>1.1</scale>
        <Icon>
          <href>https://www.gstatic.com/mapspro/images/stock/503-wht-blank_maps.png</href>
        </Icon>
        <hotSpot x="16" xunits="pixels" y="32" yunits="insetPixels"/>
      </IconStyle>
      <LabelStyle>
        <scale>1.1</scale>
      </LabelStyle>
    </Style>
    <StyleMap id="icon-503-DB4436">
      <Pair>
        <key>normal</key>
        <styleUrl>#icon-503-DB4436-normal</styleUrl>
      </Pair>
      <Pair>
        <key>highlight</key>
        <styleUrl>#icon-503-DB4436-highlight</styleUrl>
      </Pair>
    </StyleMap>
    <Style id="icon-503-DB4436-nodesc-normal">
      <IconStyle>
        <color>ff3644db</color>
        <scale>1.1</scale>
        <Icon>
          <href>https://www.gstatic.com/mapspro/images/stock/503-wht-blank_maps.png</href>
        </Icon>
        <hotSpot x="16" xunits="pixels" y="32" yunits="insetPixels"/>
      </IconStyle>
      <LabelStyle>
        <scale>0</scale>
      </LabelStyle>
      <BalloonStyle>
        <text><![CDATA[<h3>$[name]</h3>]]></text>
      </BalloonStyle>
    </Style>
    <Style id="icon-503-DB4436-nodesc-highlight">
      <IconStyle>
        <color>ff3644db</color>
        <scale>1.1</scale>
        <Icon>
          <href>https://www.gstatic.com/mapspro/images/stock/503-wht-blank_maps.png</href>
        </Icon>
        <hotSpot x="16" xunits="pixels" y="32" yunits="insetPixels"/>
      </IconStyle>
      <LabelStyle>
        <scale>1.1</scale>
      </LabelStyle>
      <BalloonStyle>
        <text><![CDATA[<h3>$[name]</h3>]]></text>
      </BalloonStyle>
    </Style>
    <StyleMap id="icon-503-DB4436-nodesc">
      <Pair>
        <key>normal</key>
        <styleUrl>#icon-503-DB4436-nodesc-normal</styleUrl>
      </Pair>
      <Pair>
        <key>highlight</key>
        <styleUrl>#icon-503-DB4436-nodesc-highlight</styleUrl>
      </Pair>
    </StyleMap>
    <Style id="icon-61-nodesc-normal">
      <IconStyle>
        <scale>1.1</scale>
        <Icon>
          <href>https://www.gstatic.com/mapspro/images/stock/61-green-dot.png</href>
        </Icon>
        <hotSpot x="16" xunits="pixels" y="32" yunits="insetPixels"/>
      </IconStyle>
      <LabelStyle>
        <scale>0</scale>
      </LabelStyle>
      <BalloonStyle>
        <text><![CDATA[<h3>$[name]</h3>]]></text>
      </BalloonStyle>
    </Style>
    <Style id="icon-61-nodesc-highlight">
      <IconStyle>
        <scale>1.1</scale>
        <Icon>
          <href>https://www.gstatic.com/mapspro/images/stock/61-green-dot.png</href>
        </Icon>
        <hotSpot x="16" xunits="pixels" y="32" yunits="insetPixels"/>
      </IconStyle>
      <LabelStyle>
        <scale>1.1</scale>
      </LabelStyle>
      <BalloonStyle>
        <text><![CDATA[<h3>$[name]</h3>]]></text>
      </BalloonStyle>
    </Style>
    <StyleMap id="icon-61-nodesc">
      <Pair>
        <key>normal</key>
        <styleUrl>#icon-61-nodesc-normal</styleUrl>
      </Pair>
      <Pair>
        <key>highlight</key>
        <styleUrl>#icon-61-nodesc-highlight</styleUrl>
      </Pair>
    </StyleMap>
    <Style id="line-0288D1-5000-normal">
      <LineStyle>
        <color>ffd18802</color>
        <width>5</width>
      </LineStyle>
    </Style>
    <Style id="line-0288D1-5000-highlight">
      <LineStyle>
        <color>ffd18802</color>
        <width>7.5</width>
      </LineStyle>
    </Style>
    <StyleMap id="line-0288D1-5000">
      <Pair>
        <key>normal</key>
        <styleUrl>#line-0288D1-5000-normal</styleUrl>
      </Pair>
      <Pair>
        <key>highlight</key>
        <styleUrl>#line-0288D1-5000-highlight</styleUrl>
      </Pair>
    </StyleMap>
    <Placemark>
      <name>Dades tècniques Etapa 01</name>
      <description><![CDATA[RUTA 1. ETAPA 01<br>Distància de l'etapa: 24,8 km<br>Durada aproximada: 7h (3,5 km/h)<br>Altitud inicial: 720 m<br>Altitud final: 243 m<br>Altitud mínima: 177 m<br>Altitud màxima: 801 m<br>Ascens acumulat: 693 m<br>Descens acumulat: 1.197 m]]></description>
      <styleUrl>#line-0288D1-5000</styleUrl>
      <LineString>
        <tessellate>1</tessellate>
        <coordinates>
          1.83643994852901,41.5930193848908,0
          1.83640390634537,41.5929595381021,0
          1.83591926470399,41.5926345717162,0
          1.83536563999951,41.5922546200454,0
          1.83535474352539,41.5922203380615,0
          1.83537209406495,41.5921828709543,0
          1.83559270575643,41.5921770036221,0
          1.83559731580317,41.5921864751726,0
          1.83615094050765,41.5923759061843,0
          1.83696524240077,41.5927415248007,0
          1.83718417771161,41.5928129386157,0
          1.83744996786118,41.5928795747459,0
          1.83781097643077,41.5929818339646,0
          1.83838061057031,41.5931876096874,0
          1.83855134993792,41.5932588558644,0
          1.83949925936759,41.5937270689756,0
          1.84033837169409,41.5941344294697,0
          1.84048262424767,41.5944071765989,0
          1.84048203751445,41.5946228429675,0
          1.8403204344213,41.5947103500366,0
          1.84030937030911,41.5947132837027,0
          1.84000552631915,41.5947664249688,0
          1.83982414193451,41.5947979409248,0
          1.83952574618161,41.5949158743024,0
          1.83943673036993,41.5950062312186,0
          1.83924746699631,41.5954905375838,0
          1.83914001099765,41.5956594329327,0
          1.83903280645609,41.5957279130816,0
          1.83862175792456,41.5959466807544,0
          1.83816075325012,41.5962886624038,0
          1.83782430365682,41.5963485930115,0
          1.8375454377383,41.5964362677187,0
          1.83730051852763,41.5965729765594,0
          1.83701469562948,41.5968474000692,0
          1.83667874895036,41.5970535948873,0
          1.83628278784454,41.5974234882742,0
          1.83621388860047,41.5975282620639,0
          1.83600593358278,41.5980733372271,0
          1.83587593026459,41.5981631912291,0
          1.83498996309936,41.598427304998,0
          1.8347477260977,41.5985574759543,0
          1.83456927537918,41.5986591484398,0
          1.83447816409171,41.5987404529005,0
          1.83447355404496,41.5988338273019,0
          1.83433659374714,41.5994518250227,0
          1.83439241722226,41.5998106542975,0
          1.83434162288904,41.6000650450587,0
          1.83419787324965,41.6001832298934,0
          1.83412184938788,41.6002252232283,0
          1.8339260481298,41.6002709884197,0
          1.83357912115753,41.6002624388784,0
          1.83330360800028,41.600308790803,0
          1.83257664553821,41.6006141435355,0
          1.83245804160833,41.6007547080517,0
          1.83234631083906,41.6009130422026,0
          1.83216861449182,41.6010812669992,0
          1.8320504296571,41.6012161318213,0
          1.83191439136863,41.6012142039835,0
          1.83177919127047,41.601278744638,0
          1.83170073665678,41.6013573668897,0
          1.83166410773992,41.6014179680496,0
          1.83163653127849,41.601487621665,0
          1.83162647299468,41.6016132663935,0
          1.83155430480838,41.6017829161137,0
          1.83150158263743,41.6018306929618,0
          1.83140896260738,41.6018778830767,0
          1.83127049356699,41.601881319657,0
          1.83106522075832,41.6018352191895,0
          1.83096824213862,41.6017709299922,0
          1.83098089881241,41.6017852630466,0
          1.83096480555832,41.6017706785351,0
          1.83076648972929,41.6017283499241,0
          1.83047086000443,41.6017312835902,0
          1.83052291162312,41.6018110793084,0
          1.83044915087521,41.601855000481,0
          1.83048971928656,41.6019220557064,0
          1.83030079118908,41.6019750293344,0
          1.83012686669827,41.6020857542753,0
          1.82968245819211,41.6025178413838,0
          1.82926688343286,41.6027796082199,0
          1.82909404858947,41.6028454061598,0
          1.8287246581167,41.6028922609985,0
          1.82853254489601,41.6028841305524,0
          1.82736502960324,41.6027125529945,0
          1.82682733051479,41.6025449987501,0
          1.82651460170746,41.602481212467,0
          1.82626180350781,41.6025026701391,0
          1.8260960932821,41.6025667078793,0
          1.82571371085942,41.6028595715761,0
          1.82520752772689,41.6031622420996,0
          1.82449992746115,41.6034234222025,0
          1.82428291998804,41.603551665321,0
          1.82418493553996,41.6037245001644,0
          1.82411704212427,41.6039122547954,0
          1.82409323751926,41.6041185334325,0
          1.82396474294364,41.6044833138585,0
          1.8236252758652,41.6050387825817,0
          1.82358839549124,41.605108352378,0
          1.82355000637472,41.6052390262485,0
          1.82353106327355,41.6053447220474,0
          1.82359996251762,41.6058709379286,0
          1.82359417900443,41.6060127597302,0
          1.82351103052497,41.6061517316848,0
          1.82335814461112,41.6062681563199,0
          1.82313024066389,41.6063617821783,0
          1.82295313104987,41.6064095590264,0
          1.82274106889963,41.6064496245235,0
          1.82263093069196,41.6064480319619,0
          1.82243957184255,41.6064075473696,0
          1.82208627462387,41.6062749456614,0
          1.82174663990736,41.6062557511032,0
          1.82125587947667,41.606279220432,0
          1.82107960805297,41.6063899453729,0
          1.82095631025732,41.6065409034491,0
          1.82088749483228,41.6066710744053,0
          1.82080811820924,41.6067999880761,0
          1.82062002830207,41.6070093680173,0
          1.82047309353948,41.607071980834,0
          1.82028668001294,41.607119590044,0
          1.81969449855387,41.6072602383792,0
          1.81954731233418,41.6074137110263,0
          1.81938705034554,41.6076378431171,0
          1.81897290050983,41.6085590980947,0
          1.8189006485045,41.6087832301855,0
          1.81887810118496,41.6089374572039,0
          1.81887550279498,41.6092392895371,0
          1.81882906705141,41.6095081809908,0
          1.81855481117964,41.6099356580526,0
          1.81820335797966,41.6103043779731,0
          1.81761218234897,41.610872419551,0
          1.81739408522844,41.611160421744,0
          1.81726072914898,41.6112411394715,0
          1.81731294840574,41.6113985516131,0
          1.81731957010925,41.6116106975824,0
          1.81733960285783,41.6116541158408,0
          1.81740892119706,41.6116964444518,0
          1.8174552731216,41.6117186564952,0
          1.81746860034764,41.6118446364999,0
          1.81742576882243,41.6119680181146,0
          1.81742526590824,41.6120830178261,0
          1.81737287901342,41.612156778574,0
          1.81737941689789,41.6122754663229,0
          1.81741680018604,41.6123783960938,0
          1.8174531776458,41.6124239098281,0
          1.81751084513962,41.6124624665827,0
          1.81757153011859,41.6124741174281,0
          1.81757597252727,41.6125837527215,0
          1.81754655204713,41.6126336250454,0
          1.81748502887785,41.612656172365,0
          1.81733633391559,41.6126935556531,0
          1.81720574386418,41.6126647219062,0
          1.81704573333263,41.6125887818635,0
          1.81670249439776,41.6123322956264,0
          1.81663317605853,41.6122917272151,0
          1.81641642004252,41.6120424494147,0
          1.81637316942215,41.6118650883436,0
          1.81633964180946,41.6116040758789,0
          1.81632019579411,41.6115355119109,0
          1.81626143865287,41.6114466637373,0
          1.81615800596774,41.6113570611924,0
          1.81598827242851,41.6112971305847,0
          1.81581476703286,41.6112964600325,0
          1.81525527499616,41.6113888286054,0
          1.81514220312238,41.6114069335163,0
          1.81499099358916,41.6114515252411,0
          1.81490616872907,41.6114682890475,0
          1.81471372023225,41.6114727314562,0
          1.81451381184161,41.6114015690982,0
          1.81428506970406,41.611258154735,0
          1.81420829147101,41.6112336795777,0
          1.81413285434246,41.6112487670034,0
          1.81405968032777,41.6112674586475,0
          1.81396932341158,41.6113200969994,0
          1.8136696703732,41.6115853842348,0
          1.81338108144701,41.6118777450174,0
          1.8132777325809,41.6120757255703,0
          1.81326272897422,41.6123045515269,0
          1.813233057037,41.6125592775643,0
          1.81319642812014,41.6127150971442,0
          1.81310162879527,41.6128502972424,0
          1.81308092549443,41.6129309311509,0
          1.81308008730412,41.6131573263556,0
          1.81306793354452,41.6132294107229,0
          1.81309282779694,41.6132639441639,0
          1.8131033051759,41.6133161634207,0
          1.81307866238058,41.6133643593639,0
          1.81302635930479,41.6133941151202,0
          1.81296466849744,41.6134220268577,0
          1.81293357163668,41.6134467534721,0
          1.81297212839127,41.6135029960424,0
          1.81295251473785,41.6135386191309,0
          1.81289350613952,41.6135539580137,0
          1.81285251863301,41.6135012358427,0
          1.81282837875187,41.6134344320744,0
          1.81281228549779,41.6134216077626,0
          1.81276232935488,41.6134478431195,0
          1.81273810565472,41.6134798619896,0
          1.81275587528944,41.613523280248,0
          1.81274799630046,41.613652529195,0
          1.81271371431649,41.6137113701552,0
          1.8127853795886,41.6138506773859,0
          1.81284137070179,41.613864088431,0
          1.81284765712917,41.6138947661966,0
          1.81276258081198,41.6138950176537,0
          1.81270441040397,41.613969700411,0
          1.81231129914522,41.6143180523068,0
          1.81231465190649,41.6143720317632,0
          1.81235874071717,41.6143905557692,0
          1.81245127692819,41.6143469698727,0
          1.8124817032367,41.6143528372049,0
          1.81248312816024,41.6143887955695,0
          1.81234030053019,41.6144747938961,0
          1.8123281467706,41.6144925635308,0
          1.81243350729346,41.6144995205104,0
          1.8124330881983,41.6145174577832,0
          1.81234885007143,41.6146042943001,0
          1.8122517876327,41.6146424319595,0
          1.81204441934824,41.6146825812757,0
          1.81200728751719,41.6147312801331,0
          1.81192656978965,41.614773273468,0
          1.81188533082604,41.6148301865906,0
          1.81187242269516,41.6148767061532,0
          1.81184316985309,41.6149230580777,0
          1.811792710796,41.6149725951254,0
          1.8117993324995,41.6149888560176,0
          1.8118410743773,41.6150092240423,0
          1.81181936524808,41.6150341182947,0
          1.81175105273724,41.6150289215147,0
          1.81157017126679,41.6151359584183,0
          1.81151384487748,41.6151387244463,0
          1.81131284683943,41.615204103291,0
          1.81105200201273,41.6153225395829,0
          1.81100036948919,41.6153778601438,0
          1.81095452047885,41.6155281476676,0
          1.81093901395798,41.615587240085,0
          1.81092568673193,41.6156535409391,0
          1.81086081080139,41.6157154832035,0
          1.81085494346917,41.6157656908035,0
          1.81081202812493,41.6158890724182,0
          1.81063843891025,41.6160651762038,0
          1.81033845059574,41.6165353171527,0
          1.81021548807621,41.6167585272342,0
          1.81007081642747,41.6171140037477,0
          1.81004323996603,41.6171855013818,0
          1.80997299961746,41.6172797139734,0
          1.80995036847889,41.6173404827714,0
          1.80995623581111,41.6174861602485,0
          1.80999093689024,41.6175046004355,0
          1.81000979617238,41.6174994874746,0
          1.81005757302046,41.6174641996622,0
          1.81008607149124,41.6174502857029,0
          1.8101208563894,41.6174651216716,0
          1.81012932211161,41.6175030078739,0
          1.81006092578173,41.617617001757,0
          1.80999957025051,41.6176559776068,0
          1.80992103181779,41.61770157516,0
          1.80990661494434,41.6177157405764,0
          1.80992731824517,41.6177340131253,0
          1.80997408926487,41.6177382040769,0
          1.81000895798206,41.6177531238645,0
          1.80999655276537,41.6177798621356,0
          1.80976144038141,41.6179004777223,0
          1.809625569731,41.6180836223066,0
          1.80947343818843,41.6182039026171,0
          1.80935449898243,41.6183693613857,0
          1.80935022421181,41.6184483189136,0
          1.80930906906724,41.6184998676181,0
          1.80938148871064,41.61870572716,0
          1.8093715980649,41.6189072281122,0
          1.80932583287358,41.6190556716174,0
          1.80919985286892,41.619316264987,0
          1.80914302356541,41.6197740845382,0
          1.80902877822518,41.6204193234444,0
          1.80894621647894,41.6205069143325,0
          1.8084148876369,41.6207490675151,0
          1.80788146331906,41.6208870336413,0
          1.80776503868401,41.6209482215345,0
          1.80767652578652,41.6211177036166,0
          1.80768155492842,41.6214740183204,0
          1.80772094987333,41.6218807082623,0
          1.80783385410905,41.6221536230296,0
          1.80783418938518,41.6225169785321,0
          1.80780854076147,41.6226082574576,0
          1.80757082998753,41.6231205593795,0
          1.80748743005097,41.6237703245133,0
          1.80745465680957,41.6239603422582,0
          1.80727327242494,41.6243682894856,0
          1.80725030601025,41.6244452353567,0
          1.80720588192344,41.6245361790061,0
          1.8071613740176,41.624810853973,0
          1.80715869180858,41.6250174678862,0
          1.80718207731843,41.6251166258007,0
          1.80723153054714,41.6252053901553,0
          1.80728835985064,41.6253970842808,0
          1.80748759768903,41.6257862560451,0
          1.80766361765564,41.6260690614581,0
          1.8077502027154,41.6261572390795,0
          1.8080644402653,41.6263522021472,0
          1.80819687433541,41.6264026612043,0
          1.80843684822321,41.6264707222581,0
          1.8085512612015,41.6264903359115,0
          1.8086736369878,41.6264723148197,0
          1.80877891369164,41.6265196725726,0
          1.80881495587528,41.6265795193613,0
          1.80881520733237,41.6266657691449,0
          1.80876064114273,41.6267872229218,0
          1.80872510187328,41.6268981155008,0
          1.80870632641017,41.6269948426634,0
          1.80874278768897,41.6271355748177,0
          1.80922483094037,41.6278794687241,0
          1.80948726832867,41.6282749269158,0
          1.80957863107324,41.6283750906587,0
          1.81019897572696,41.6285758372396,0
          1.81026351638138,41.62862168625,0
          1.8103420548141,41.6287665255368,0
          1.8103835452348,41.6289881430566,0
          1.81036460213363,41.629092162475,0
          1.81036937981844,41.6291856206954,0
          1.81039812974632,41.6292543523014,0
          1.8104786798358,41.6294136084616,0
          1.81056400761008,41.6295537538826,0
          1.81065008975565,41.6297760419548,0
          1.81076391600072,41.6300148423761,0
          1.81107580661774,41.6304002422839,0
          1.81134436279535,41.630818080157,0
          1.81174862198532,41.6313611436635,0
          1.8120548967272,41.6317704319954,0
          1.81214575655758,41.6325659584254,0
          1.81215682066977,41.6326883342117,0
          1.8126820307225,41.633767420426,0
          1.81295729242265,41.6344497073442,0
          1.81303968653083,41.6347239632159,0
          1.81313272565603,41.6362322028726,0
          1.81319039314985,41.6364152636379,0
          1.81329608894885,41.6366000846028,0
          1.81349935010076,41.6367305908352,0
          1.81422103196383,41.6371433995664,0
          1.8143533822149,41.6371974628419,0
          1.81442370638251,41.6371984686702,0
          1.81455303914845,41.6372829582542,0
          1.81462788954377,41.6373882349581,0
          1.81473442353308,41.6382024530321,0
          1.81487825699151,41.6383644752204,0
          1.81510599330068,41.6385474521667,0
          1.81511202827096,41.6386823169887,0
          1.81502720341086,41.6387942992151,0
          1.81496534496546,41.6388530563563,0
          1.81495570577681,41.6395376063883,0
          1.81488102301955,41.6396698728204,0
          1.81436662562192,41.639991402626,0
          1.81368635036051,41.6402835119516,0
          1.81350018829107,41.6405617073178,0
          1.81337831541896,41.6410397272557,0
          1.8135969992727,41.6414004843682,0
          1.81360454298556,41.641526799649,0
          1.81353430263698,41.6419085115194,0
          1.81338409893215,41.6423915605992,0
          1.81349784135818,41.6426253318787,0
          1.81363748386502,41.6426704265177,0
          1.81351443752646,41.6427135933191,0
          1.81326541118324,41.6427297703922,0
          1.81228305213153,41.6427139285952,0
          1.81122232228517,41.6425702627748,0
          1.8104718066752,41.6424732841551,0
          1.81005908176303,41.6425437759608,0
          1.80995497852564,41.6425800696015,0
          1.80958030745387,41.6430383082479,0
          1.80933346040547,41.6431607678533,0
          1.80915626697242,41.6433091275394,0
          1.80903372354806,41.6435266379267,0
          1.80895208381116,41.6436045058072,0
          1.808763993904,41.6436233650893,0
          1.80854556150734,41.6436364408583,0
          1.80842896923423,41.6436997242272,0
          1.80842855013907,41.6441003791988,0
          1.80842779576778,41.6443232540041,0
          1.80813191458583,41.6443843580782,0
          1.80774257518351,41.6443859506398,0
          1.8072544131428,41.6443034727126,0
          1.80714980699122,41.6443613078445,0
          1.80714075453579,41.6444420255721,0
          1.80714645422995,41.6444978490472,0
          1.80725164711475,41.6446089092642,0
          1.8073857575655,41.6446863580495,0
          1.80760125629604,41.6447954066098,0
          1.80772120133042,41.644878052175,0
          1.80792538449168,41.6451490391046,0
          1.80802605114877,41.6453517135233,0
          1.80795874446631,41.6454190202057,0
          1.80775850079954,41.645543994382,0
          1.8074925430119,41.6456767637283,0
          1.80731585249305,41.6458071861416,0
          1.80677329190075,41.6461282968521,0
          1.8065257743001,41.6462380159646,0
          1.8063582200557,41.6462805122137,0
          1.80615831166506,41.6463981103152,0
          1.80601774714887,41.6467770561576,0
          1.80600995197892,41.6469044610858,0
          1.80604607798159,41.6472649667412,0
          1.80604666471481,41.6473368834704,0
          1.80613760836422,41.6477460879833,0
          1.80613601580262,41.6479060146958,0
          1.80618437938392,41.648255540058,0
          1.80620315484703,41.6483528539538,0
          1.80626534856856,41.6484956815839,0
          1.80620349012315,41.6487230826169,0
          1.80609016679227,41.6488489788026,0
          1.80598497390747,41.6488965880126,0
          1.80586670525372,41.6489379946142,0
          1.80575229227543,41.6489166207612,0
          1.80546655319631,41.6489987634122,0
          1.80516103282571,41.6490868572146,0
          1.80506522767246,41.6491681616753,0
          1.8050389084965,41.6492845863104,0
          1.80505659431219,41.6494268272072,0
          1.80504058487713,41.649600835517,0
          1.8050838354975,41.6497506201267,0
          1.80514695122838,41.6498575732112,0
          1.80529866367579,41.6500038374215,0
          1.80535599589348,41.6501537896693,0
          1.80535105057061,41.6502615809441,0
          1.80531333200634,41.6503652650863,0
          1.80521450936794,41.6504734754562,0
          1.80532607249916,41.6506098490208,0
          1.80545087903738,41.6506888903677,0
          1.80563217960298,41.6507543530315,0
          1.80571281351149,41.6507748048753,0
          1.80593317374587,41.6507797501981,0
          1.80603744462132,41.6507380921394,0
          1.80632209405303,41.6509901359677,0
          1.8063754029572,41.6510160360485,0
          1.8064668495208,41.6510156169534,0
          1.80655092000961,41.6510329674929,0
          1.80661059916019,41.6510840971023,0
          1.80669936351478,41.6511015314609,0
          1.80682433769107,41.6511698439717,0
          1.80696498602629,41.6512670740485,0
          1.80706473067403,41.6513152699918,0
          1.80734761990607,41.6513178683817,0
          1.80759212002158,41.6512961592525,0
          1.80806276388466,41.6512292716652,0
          1.80834196507931,41.651226086542,0
          1.80845411494374,41.6512438561767,0
          1.8085147999227,41.6512572672218,0
          1.80860473774374,41.6513178683817,0
          1.80872183293104,41.6514238156378,0
          1.80888628587127,41.651508808136,0
          1.80910564027727,41.6515532322228,0
          1.80930211208761,41.6515740193427,0
          1.80953043513,41.6516350395978,0
          1.81000552140176,41.6518700681627,0
          1.81025873869658,41.6520659532398,0
          1.8103436473757,41.6522414702922,0
          1.81047440506518,41.6523062624037,0
          1.81076249107718,41.6523211821914,0
          1.81111352518201,41.6524501796812,0
          1.81137420237064,41.6526282113045,0
          1.81168433278799,41.6529634036124,0
          1.812001504004,41.6532302834094,0
          1.81221348233521,41.6532872803509,0
          1.81267716921866,41.6537954751402,0
          1.81287003681064,41.654149023816,0
          1.81293474510312,41.654191268608,0
          1.81329751387239,41.6545109543949,0
          1.81383311748505,41.6548592224717,0
          1.81410158984363,41.6550049837679,0
          1.81435480713844,41.655200952664,0
          1.81465663947165,41.6555214766413,0
          1.81475864723325,41.6556903719902,0
          1.81496584787965,41.6559466905892,0
          1.81516885757446,41.6560825612396,0
          1.81543833576143,41.6563165839762,0
          1.81566573679447,41.6565157379955,0
          1.81590897962451,41.6567348409444,0
          1.8164293281734,41.6571339871734,0
          1.81679083965719,41.6574160382152,0
          1.81702611967921,41.6575774736702,0
          1.81745233945548,41.6577974148095,0
          1.81758862920106,41.6578820720315,0
          1.81777412071824,41.6580201219767,0
          1.81798534467816,41.6582082118839,0
          1.81815549731255,41.6583454236388,0
          1.81817385368049,41.6583636961877,0
          1.81827359832823,41.6586004849523,0
          1.81834576651454,41.6588153969496,0
          1.81829648092389,41.6589931771159,0
          1.81830896995962,41.6591550316662,0
          1.81834710761905,41.6596102528274,0
          1.81834040209651,41.6599839180708,0
          1.81836588308215,41.660090284422,0
          1.81840603239834,41.6601771209389,0
          1.81850099936128,41.6602436732501,0
          1.81855875067413,41.6605697292835,0
          1.81855439208448,41.6607457492501,0
          1.81853176094592,41.6608082782477,0
          1.81846948340535,41.6608613356948,0
          1.81846898049116,41.6608847212046,0
          1.81844827719033,41.6609616670758,0
          1.81844894774258,41.6610317397863,0
          1.81850996799767,41.6612756531686,0
          1.81854056194425,41.6614647489041,0
          1.81839563883841,41.6619244962931,0
          1.81838633492589,41.6620684973896,0
          1.81858004070818,41.6628781054169,0
          1.81933273561299,41.6636887192726,0
          1.81933441199362,41.6638145316392,0
          1.81935528293252,41.6639190539718,0
          1.81931102648377,41.6641969978809,0
          1.81930214166641,41.6642017755657,0
          1.81926677003503,41.6643036995083,0
          1.81912452913821,41.6643681563437,0
          1.81897801347077,41.6644109878689,0
          1.81841852143407,41.6644658893347,0
          1.81868305429816,41.6645810566843,0
          1.81978778913617,41.6648682206869,0
          1.81999105028808,41.6649016644806,0
          1.82042732834816,41.6648988984525,0
          1.82063897140324,41.6648767702281,0
          1.82083058170974,41.664712401107,0
          1.82125370018184,41.664580386132,0
          1.82154237292707,41.6645737644285,0
          1.82185493409634,41.6646446753293,0
          1.82228299789131,41.6647874191403,0
          1.82244258932769,41.6648776922375,0
          1.82254669256508,41.6650102939457,0
          1.82276914827526,41.6651231143624,0
          1.8230364471674,41.6652221884578,0
          1.82318522594869,41.6651812009513,0
          1.82323174551129,41.6650992259383,0
          1.8232383672148,41.6649249661714,0
          1.82327005080879,41.6647798754275,0
          1.82333425618708,41.6647430788726,0
          1.82334867306054,41.6647306736559,0
          1.8234022334218,41.6647458449006,0
          1.82339929975569,41.6648662090302,0
          1.82345487177372,41.6649910155684,0
          1.82358453981578,41.6651545464993,0
          1.82362804189324,41.6653923410922,0
          1.82377740740776,41.6655203327537,0
          1.82397002354264,41.6655901540071,0
          1.82415995746851,41.6656880546361,0
          1.82421603240073,41.6657949239016,0
          1.82428970932961,41.6658499091864,0
          1.82482154108584,41.6659706924111,0
          1.82512278668582,41.6661654040217,0
          1.82518380694091,41.6661644820124,0
          1.82525002397597,41.6661402583122,0
          1.82534071616828,41.6660750471056,0
          1.82542051188648,41.6659791581333,0
          1.8255952745676,41.6659277770668,0
          1.82610648684204,41.6659332253039,0
          1.82613121345639,41.665904391557,0
          1.82623783126473,41.6658610571176,0
          1.82690042071045,41.6659082472324,0
          1.82750090025365,41.6659078281373,0
          1.82759595103562,41.6658552736044,0
          1.82766652666032,41.6657503321767,0
          1.82778135873377,41.665671877563,0
          1.82790138758719,41.6656538564712,0
          1.82825376279652,41.6657253541052,0
          1.82836214080453,41.6658023837954,0
          1.82850773446262,41.666181832552,0
          1.8285745382309,41.666229525581,0
          1.82891769334674,41.666295491159,0
          1.82923276908696,41.6664705891162,0
          1.82946243323386,41.6665726806968,0
          1.82962831109762,41.6665984131396,0
          1.82980298995972,41.6665523964912,0
          1.82989133521914,41.6666812263429,0
          1.82988521642983,41.6667404863983,0
          1.82995336130261,41.6668312624097,0
          1.83010063134134,41.6668513789773,0
          1.83026248589158,41.6667548194528,0
          1.83045853860676,41.6666013468057,0
          1.83050237596035,41.6666325274855,0
          1.83068627491593,41.6666872613132,0
          1.83085768483579,41.6666807234287,0
          1.83243851177394,41.6673916764557,0
          1.83272835798562,41.6677991207689,0
          1.83286271989346,41.6679628193378,0
          1.83308182284236,41.6683091595769,0
          1.83344383724034,41.6686611156911,0
          1.83406476862729,41.6691583301872,0
          1.83444983325899,41.6694297362119,0
          1.83474554680288,41.6696935985237,0
          1.8351655639708,41.6702638193965,0
          1.83525960892439,41.670349650085,0
          1.8355215433985,41.6704755462706,0
          1.83575732633472,41.6705220658332,0
          1.8360067717731,41.6706262528896,0
          1.83676751330495,41.6712625231594,0
          1.83717001229525,41.671501910314,0
          1.83737888932228,41.6715911775827,0
          1.83798003941774,41.6721215844154,0
          1.83834599331021,41.6725041344762,0
          1.83874312788248,41.6728548333049,0
          1.83884647674859,41.6729394067079,0
          1.83900807984173,41.6731411591172,0
          1.83911855332553,41.6734194383025,0
          1.83916448615491,41.6737507749349,0
          1.83921536430717,41.673780195415,0
          1.83944159187377,41.6747488081455,0
          1.83947377838194,41.6749564278871,0
          1.83949825353921,41.6752981580794,0
          1.83954418636859,41.675532432273,0
          1.83940110728145,41.6761309839785,0
          1.83937411755323,41.6761790961027,0
          1.83940043672919,41.6762549523264,0
          1.83927403762937,41.6765333991498,0
          1.83921938762069,41.6767109278589,0
          1.83920220471919,41.6767430305481,0
          1.83921377174556,41.676940927282,0
          1.83917446061969,41.6771110799164,0
          1.83907454833388,41.6772623732686,0
          1.8387453071773,41.6773959808052,0
          1.83860256336629,41.6774784587324,0
          1.83847658336163,41.6776435822248,0
          1.83827734552324,41.6779282316566,0
          1.83817793615162,41.6780634317547,0
          1.83804323896766,41.6781980451196,0
          1.83795673772693,41.6783818602562,0
          1.83802119456232,41.6784820239991,0
          1.83801725506782,41.6785484924912,0
          1.83797190897167,41.678677238524,0
          1.8378081265837,41.6787556931376,0
          1.8376802187413,41.6789048071951,0
          1.83771626092494,41.6790598724037,0
          1.83759623207152,41.6791731957346,0
          1.83735793456435,41.6792327072471,0
          1.83734301477671,41.6792684141546,0
          1.8374452739954,41.6793040372431,0
          1.83747779577971,41.679317029193,0
          1.83746069669724,41.6793455276638,0
          1.83734594844282,41.6793403308839,0
          1.83723287656903,41.6793602798134,0
          1.83722281828523,41.6793871019036,0
          1.83729481883347,41.6794168576598,0
          1.83737201616168,41.679425155744,0
          1.83739489875734,41.6794470325112,0
          1.83736841194332,41.679475447163,0
          1.8373123370111,41.6794674005359,0
          1.83719725348055,41.679472932592,0
          1.83717805892229,41.6794924624264,0
          1.83717512525618,41.6795157641172,0
          1.83743295259774,41.679618274793,0
          1.83743789792061,41.6796601004899,0
          1.83739028871059,41.6796899400651,0
          1.83735424652696,41.6797253955156,0
          1.83737008832395,41.6797489486635,0
          1.8373139295727,41.6798380482942,0
          1.83732834644616,41.6799227055162,0
          1.83731149882078,41.6799403913319,0
          1.83728635311127,41.6800083685666,0
          1.83732809498906,41.6800268925726,0
          1.83674840256572,41.681050658226,0
          1.83644874952734,41.6815082263201,0
          1.83645268902183,41.6815057955682,0
          1.83593208901584,41.6828784160316,0
          1.83594047091901,41.6828645020723,0
          1.83553822338581,41.6836408339441,0
          1.83528508991003,41.6841677203774,0
          1.83519003912807,41.6843154933304,0
          1.83510395698249,41.6843807883561,0
          1.83500303886831,41.6843847278506,0
          1.83487756177783,41.6842409782112,0
          1.83473498560488,41.6841221228242,0
          1.83472082018852,41.6841029282659,0
          1.83374198153615,41.6840403992683,0
          1.83346236124635,41.6840616054833,0
          1.83273615315557,41.6842345241457,0
          1.83216945268214,41.6844887472689,0
          1.83189108967781,41.6845548804849,0
          1.83170543052256,41.684568375349,0
          1.83121969923377,41.6847820300609,0
          1.83052727021277,41.6852841898799,0
          1.83000239543617,41.6857456974685,0
          1.82964230887592,41.6860168520361,0
          1.82931030169129,41.6863607615232,0
          1.82894107885659,41.6865908447653,0
          1.82862885296345,41.6867014020681,0
          1.82835878804326,41.6868558805436,0
          1.82808520272374,41.6871106904,0
          1.82797288522124,41.6873912326992,0
          1.82774338871241,41.6876646503806,0
          1.8273445777595,41.6880403272808,0
          1.82704743929207,41.6885877493769,0
          1.82692246511579,41.6888900846243,0
          1.82694425806403,41.68915101327,0
          1.82707610540092,41.6893217526376,0
          1.82735555805266,41.6895001195371,0
          1.82746812701225,41.6895969305187,0
          1.82747785001993,41.6897749621421,0
          1.82738430798054,41.6899830847979,0
          1.8270530551672,41.6902928799391,0
          1.82661451399326,41.6905813012272,0
          1.82652885094285,41.6906321793795,0
          1.8259116075933,41.6908928565681,0
          1.82535421103239,41.6910520289093,0
          1.82485917583108,41.6910967044532,0
          1.82418652810156,41.6910763364285,0
          1.82368361391127,41.6911194194108,0
          1.82366852648556,41.6911195870489,0
          1.82355889119208,41.6910964529961,0
          1.82345579378307,41.6911884024739,0
          1.82306461036205,41.6913588903844,0
          1.82265238836408,41.6915815975517,0
          1.82239850051701,41.6917002014816,0
          1.82193204760552,41.6920618806034,0
          1.82158729992807,41.6922546643764,0
          1.82134447619319,41.6923050396144,0
          1.82120366021991,41.6924054548144,0
          1.8210918456316,41.692470330745,0
          1.82113367132842,41.6925823967904,0
          1.8211869802326,41.6926064528525,0
          1.82213623076677,41.6925373859704,0
          1.82216196320951,41.6925395652652,0
          1.82207361795008,41.6926047764719,0
          1.82168184779584,41.6927986498922,0
          1.82153181172907,41.6930159926414,0
          1.82149417698383,41.6931160725653,0
          1.82116359472275,41.6932570561767,0
          1.82099360972643,41.6933013126254,0
          1.82084625586867,41.6933801025152,0
          1.82053042575717,41.6935426276177,0
          1.82030252180994,41.693654442206,0
          1.82009724900127,41.6938006225973,0
          1.82014326564968,41.6940767224878,0
          1.82031542994082,41.694521214813,0
          1.82031400501728,41.6946739330888,0
          1.82027025148272,41.694738054648,0
          1.82012105360627,41.6947969794273,0
          1.82005517184734,41.6949002444744,0
          1.82005793787539,41.6950781922787,0
          1.82008274830878,41.6952151525766,0
          1.82005341164768,41.6954127978534,0
          1.81999130174518,41.6956490837038,0
          1.82014184072614,41.6959208250046,0
          1.82024912908673,41.696040937677,0
          1.82028123177588,41.6962197236717,0
          1.82027234695852,41.6963920556009,0
          1.82022876106203,41.6965441871434,0
          1.82013153098524,41.6964924708009,0
          1.81996867060661,41.6964380722493,0
          1.81970304809511,41.696461206302,0
          1.81955804117024,41.6965436004102,0
          1.81936768814921,41.6967492923141,0
          1.81926014833152,41.6968304291368,0
          1.8189886584878,41.6969835665077,0
          1.81831718422473,41.6971051879227,0
          1.8182457704097,41.6971490252763,0
          1.81803781539202,41.6975019033998,0
          1.81787160225213,41.6977780032903,0
          1.8174328096211,41.6979722119868,0
          1.81735049933195,41.6982711106539,0
          1.81677080690861,41.6987677384168,0
          1.81662353686988,41.6988429240882,0
          1.81638540700078,41.698800008744,0
          1.81628557853401,41.6987571772188,0
          1.81605767458677,41.6987159382552,0
          1.81593672372401,41.6986746992916,0
          1.8157918844372,41.6986510623246,0
          1.81559641845524,41.6987793892622,0
          1.81536926887929,41.6988623701036,0
          1.81491756811738,41.6988235618919,0
          1.81465647183359,41.698755165562,0
          1.81440451182425,41.6987422574311,0
          1.81418255902827,41.6988020204008,0
          1.81379724293947,41.6990228835493,0
          1.81324873119593,41.6994854807854,0
          1.81292586028576,41.6997414641082,0
          1.81261983700097,41.6999796777964,0
          1.81257675401866,41.700013205409,0
          1.81232982315123,41.7001390177757,0
          1.81212312541902,41.7002474796027,0
          1.81193788535893,41.7003733757883,0
          1.81156958453357,41.7005675844848,0
          1.81137076579034,41.7007408384234,0
          1.81115258485079,41.7008365597576,0
          1.81097706779838,41.7011089716107,0
          1.81049133650959,41.7012466862798,0
          1.80996210314333,41.7015014123172,0
          1.80927135050297,41.7019354272634,0
          1.80906364694238,41.7019588127732,0
          1.8088895548135,41.7019796837121,0
          1.80851614102721,41.702098287642,0
          1.80834045633674,41.702185627073,0
          1.80813224986196,41.7022598907351,0
          1.80773637257516,41.7022138740867,0
          1.80681788362563,41.7018880695105,0
          1.80668486282229,41.7017657775432,0
          1.80656449869275,41.7017011530697,0
          1.80633977986872,41.7016817908734,0
          1.8056465126574,41.7017422243953,0
          1.80534887127578,41.7018295638263,0
          1.80518508888781,41.7019117064774,0
          1.80505357682705,41.7021092679352,0
          1.80486397817731,41.7025755532086,0
          1.80472207255662,41.7027242481709,0
          1.80457354523241,41.7029484640807,0
          1.80448838509619,41.7031683214009,0
          1.80451931431889,41.7032477818429,0
          1.80441445671022,41.7035086266697,0
          1.80439333431423,41.7039148136973,0
          1.80452392436564,41.7041395325214,0
          1.80465593934059,41.7045924905688,0
          1.80467312224209,41.7048340570182,0
          1.80482248775661,41.7047455441207,0
          1.80551173165441,41.704661976546,0
          1.80652569048107,41.704482017085,0
          1.80664337240159,41.7044657561928,0
          1.80677706375718,41.7044640798122,0
          1.80701351724565,41.7045789118856,0
          1.80764509364963,41.7045501619577,0
          1.80796855129302,41.7046383395791,0
          1.8083905801177,41.7048348952085,0
          1.80959011428058,41.7052743583918,0
          1.81039318442345,41.7058060225099,0
          1.81118552573025,41.7063043266535,0
          1.81198499165475,41.7068028822541,0
          1.81202782317996,41.7068735416979,0
          1.81245982646942,41.7071457020938,0
          1.81278755888343,41.7071683332324,0
          1.81293692439795,41.7071058042347,0
          1.8130446318537,41.707013854757,0
          1.81319609284401,41.7069603782147,0
          1.8135573528707,41.7068613041192,0
          1.81361577473581,41.7068513296545,0
          1.81364460848272,41.7069218214601,0
          1.8136228993535,41.7070418503135,0
          1.81353388354182,41.7072311136872,0
          1.81353463791311,41.707508219406,0
          1.81347026489675,41.7080320045352,0
          1.81324278004468,41.7083112057298,0
          1.81320732459426,41.7084184940904,0
          1.81323381140828,41.7087764851749,0
          1.8132518325001,41.7088054865599,0
          1.81334093213081,41.7088049836457,0
          1.81339960545301,41.708805821836,0
          1.81342718191445,41.7088277824223,0
          1.813426008448,41.7088780738413,0
          1.8134106695652,41.7089281138033,0
          1.81335845030844,41.7089543491602,0
          1.81325401179492,41.7089700233191,0
          1.81319919414818,41.7090051434934,0
          1.81302459910512,41.7091446183622,0
          1.81278739124537,41.709252577275,0
          1.81229369714856,41.7095887754112,0
          1.81199664250016,41.7099403124303,0
          1.8119911942631,41.7099708225578,0
          1.81201407685876,41.7099963035434,0
          1.81225505657494,41.7101165000349,0
          1.81237231940031,41.7102133948356,0
          1.81241171434522,41.7102301586419,0
          1.81243292056024,41.7102286498994,0
          1.81263660080731,41.7100501153618,0
          1.81284572929144,41.7101303301752,0
          1.81305234320462,41.710203839466,0
          1.81329768151045,41.7103385366499,0
          1.81340513750911,41.7104532849044,0
          1.81353706866503,41.7106222640723,0
          1.81366816163063,41.7109206598252,0
          1.81366908363998,41.7110682651401,0
          1.81365164928138,41.7111093364656,0
          1.81362046860158,41.7111376672983,0
          1.81337068788707,41.7109956778586,0
          1.81326163932681,41.7109473980963,0
          1.81318829767406,41.7109715379775,0
          1.81308989413083,41.711160549894,0
          1.81275880895555,41.7112708557397,0
          1.81224935688078,41.7114845942706,0
          1.81159514933824,41.7118270788342,0
          1.81086181662977,41.7121812980622,0
          1.81059082970023,41.7123284004629,0
          1.81053039617836,41.7124982178211,0
          1.81138912215829,41.7126794345677,0
          1.81203310377896,41.712622186169,0
          1.81241967715323,41.7126402910799,0
          1.8130634073168,41.7127655167133,0
          1.8141239695251,41.7129388544708,0
          1.81460115127266,41.7131132818758,0
          1.81568350642919,41.7137397453189,0
          1.81629421189427,41.7138252407312,0
          1.81685194373131,41.7140380572528,0
          1.81761109270155,41.7143561504781,0
          1.81816019117832,41.7146190907806,0
          1.81842816062272,41.7147882375866,0
          1.81878112256527,41.7149316519499,0
          1.81919602677226,41.7151352483779,0
          1.81937271729112,41.7152604740113,0
          1.8195719551295,41.7153603024781,0
          1.81964387185872,41.715391902253,0
          1.8196686822921,41.7154335603118,0
          1.82070191949606,41.715669427067,0
          1.82128848508,41.7156731989235,0
          1.82167975232005,41.7156913876534,0
          1.82246773503721,41.715885931626,0
          1.82337381877005,41.7160587664694,0
          1.82361144572496,41.7161233071238,0
          1.82398846372962,41.716245515272,0
          1.82436095550656,41.7163720820099,0
          1.82473017834127,41.7165247164667,0
          1.82494500651956,41.7166607547551,0
          1.82506101205945,41.7168079409748,0
          1.82513133622706,41.7169060092419,0
          1.8252881616354,41.7170160636306,0
          1.82551103644073,41.7171091027558,0
          1.82568135671318,41.7171438876539,0
          1.8258701171726,41.717257546261,0
          1.82596449740231,41.7177135217935,0
          1.82590012438595,41.7177556827664,0
          1.82602677494288,41.7179479636252,0
          1.82619852013886,41.7181193735451,0
          1.82660328224301,41.7183515522629,0
          1.8268027715385,41.718483818695,0
          1.82694450952113,41.7185397259891,0
          1.82722186669707,41.7188024986535,0
          1.82757960632443,41.7189441528171,0
          1.82780063711107,41.7190174106508,0
          1.82795838452876,41.7190148122609,0
          1.82811453938484,41.7190583143383,0
          1.82832794263959,41.7190595716238,0
          1.82834168896079,41.7189753334969,0
          1.82836339809001,41.7189505230635,0
          1.82839860208332,41.718949181959,0
          1.8284379132092,41.7189731542021,0
          1.82846272364259,41.7190130520612,0
          1.82848954573274,41.7191625852138,0
          1.82852458208799,41.7191702127457,0
          1.82856255210936,41.7191510181874,0
          1.8285777233541,41.7191063426435,0
          1.8286089040339,41.7190797720104,0
          1.82868970558047,41.7190342582762,0
          1.82878190651536,41.7190032452345,0
          1.82882004417479,41.7189786024392,0
          1.82881618849933,41.7189444042742,0
          1.82881434448063,41.718827560544,0
          1.82882012799382,41.7187845613807,0
          1.82884896174073,41.718756146729,0
          1.82888215407729,41.7187404725701,0
          1.82891735807061,41.7187392152846,0
          1.8291406519711,41.7189131397754,0
          1.82927786372602,41.7190570570529,0
          1.82936470024288,41.7190951947123,0
          1.82974473573268,41.7191868089139,0
          1.82990793138742,41.7192269582301,0
          1.82984330691397,41.7192816920578,0
          1.82983249425888,41.7193408682942,0
          1.82988127693534,41.7193577159196,0
          1.82999627664685,41.7193557880819,0
          1.83021202683449,41.7192599829286,0
          1.8303394317627,41.7192313168198,0
          1.83036524802446,41.7192280478776,0
          1.83065777644515,41.7194479051977,0
          1.83065643534064,41.7195018008351,0
          1.83060522191227,41.7195819318295,0
          1.83004380203784,41.7200051341206,0
          1.82963258586824,41.7202818207443,0
          1.82872574776411,41.7204377241433,0
          1.82836499065161,41.7205152567476,0
          1.82838443666697,41.7205855809152,0
          1.82865131646395,41.7206056136638,0
          1.82895289734006,41.720550628379,0
          1.82925439439714,41.7204956430942,0
          1.82961758226156,41.7204163502902,0
          1.82964809238911,41.720413165167,0
          1.82992142625153,41.7206507083029,0
          1.83024739846587,41.7209392972291,0
          1.83046323247254,41.7211477551609,0
          1.83033515699208,41.721208775416,0
          1.83029467239976,41.7212315741926,0
          1.83031093329191,41.7213342525065,0
          1.83037673123181,41.7214267887175,0
          1.8304028827697,41.7215098533779,0
          1.8304012902081,41.7215744778514,0
          1.83035158552229,41.7215917445719,0
          1.83029299601912,41.7215909063816,0
          1.830247733742,41.7216172255576,0
          1.83024857193232,41.7216801736504,0
          1.83026617392898,41.7217271123081,0
          1.83047496713698,41.7217246815562,0
          1.83050220832229,41.7217628192157,0
          1.83042425662279,41.7217868752778,0
          1.83026407845318,41.7219680920243,0
        </coordinates>
      </LineString>
    </Placemark>
    <Placemark>
      <name>MONTSERRAT</name>
      <styleUrl>#icon-61-nodesc</styleUrl>
      <Point>
        <coordinates>
          1.83643994852901,41.5930193848908,0
        </coordinates>
      </Point>
    </Placemark>
    <Placemark>
      <name>00. Basílica de la Mare de Déu de Montserrat</name>
      <description><![CDATA[BASÍLICA DE LA MARE DE DÉU DE MONTSERRAT<br>MONISTROL DE MONTSERRAT, BARCELONA, ESP]]></description>
      <styleUrl>#icon-503-DB4436</styleUrl>
      <Point>
        <coordinates>
          1.83817148208618,41.5934443473816,0
        </coordinates>
      </Point>
    </Placemark>
    <Placemark>
      <name>01. Monestir de Montserrat</name>
      <styleUrl>#icon-503-DB4436-nodesc</styleUrl>
      <Point>
        <coordinates>
          1.83656559325755,41.5929672494531,0
        </coordinates>
      </Point>
    </Placemark>
    <Placemark>
      <name>02. Monestir de Santa Cecília</name>
      <description><![CDATA[MONESTIR DE SANTA CECÍLIA<br>MARGANELL, BARCELONA, ESP]]></description>
      <styleUrl>#icon-503-DB4436</styleUrl>
      <Point>
        <coordinates>
          1.81716442108154,41.611533164978,0
        </coordinates>
      </Point>
    </Placemark>
    <Placemark>
      <name>03. Mas Can Martorell</name>
      <styleUrl>#icon-503-DB4436-nodesc</styleUrl>
      <Point>
        <coordinates>
          1.80632829666138,41.6188931465149,0
        </coordinates>
      </Point>
    </Placemark>
    <Placemark>
      <name>SANT CRISTÒFOL DE CASTELLBELL</name>
      <styleUrl>#icon-61-nodesc</styleUrl>
      <Point>
        <coordinates>
          1.81808710098267,41.6390633583069,0
        </coordinates>
      </Point>
    </Placemark>
    <Placemark>
      <name>04. Església de Sant Cristófol de Castellbell</name>
      <description><![CDATA[SANT CRISTÒFOL DE CASTELLBELL<br>08296, CASTELLBELL I EL VILAR, BARCELONA, ESP]]></description>
      <styleUrl>#icon-503-DB4436</styleUrl>
      <Point>
        <coordinates>
          1.81860208511352,41.6386771202087,0
        </coordinates>
      </Point>
    </Placemark>
    <Placemark>
      <name>EL PLA DE BOTGES</name>
      <styleUrl>#icon-61-nodesc</styleUrl>
      <Point>
        <coordinates>
          1.80686473846436,41.6431832313538,0
        </coordinates>
      </Point>
    </Placemark>
    <Placemark>
      <name>05. Església de Sant Jaume de Marganell</name>
      <description><![CDATA[SANT JAUME DE MARGANELL<br>08296, CASTELLBELL I EL VILAR, BARCELONA, ESP]]></description>
      <styleUrl>#icon-503-DB4436</styleUrl>
      <Point>
        <coordinates>
          1.80652141571045,41.648268699646,0
        </coordinates>
      </Point>
    </Placemark>
    <Placemark>
      <name>06. Barraca de pedra seca</name>
      <description><![CDATA[WIKIPEDRA BARRACA 3270 BARRACA DE PEDRA SECA 3270<br>08296, CASTELLBELL I EL VILAR, BARCELONA, ESP]]></description>
      <styleUrl>#icon-503-DB4436</styleUrl>
      <Point>
        <coordinates>
          1.80572748184204,41.6489768028259,0
        </coordinates>
      </Point>
    </Placemark>
    <Placemark>
      <name>07. Font de la Fassina</name>
      <styleUrl>#icon-503-DB4436-nodesc</styleUrl>
      <Point>
        <coordinates>
          1.80653507821262,41.650760807097,0
        </coordinates>
      </Point>
    </Placemark>
    <Placemark>
      <name>08. La Fassina</name>
      <styleUrl>#icon-503-DB4436-nodesc</styleUrl>
      <Point>
        <coordinates>
          1.80675745010376,41.6505432128906,0
        </coordinates>
      </Point>
    </Placemark>
    <Placemark>
      <name>09. Pedrera de Balçamuller</name>
      <styleUrl>#icon-503-DB4436-nodesc</styleUrl>
      <Point>
        <coordinates>
          1.82011728174984,41.6647484432906,0
        </coordinates>
      </Point>
    </Placemark>
    <Placemark>
      <name>10. Refugi de pelegrins de Castellgalí</name>
      <styleUrl>#icon-503-DB4436-nodesc</styleUrl>
      <Point>
        <coordinates>
          1.84361376799643,41.6725920606405,0
        </coordinates>
      </Point>
    </Placemark>
    <Placemark>
      <name>CASTELLGALÍ</name>
      <styleUrl>#icon-61-nodesc</styleUrl>
      <Point>
        <coordinates>
          1.83967217803001,41.676541864872,0
        </coordinates>
      </Point>
    </Placemark>
    <Placemark>
      <name>11. Església de Sant Miquel de Castellgalí</name>
      <description><![CDATA[SANT MIQUEL<br>08297, CASTELLGALÍ, BARCELONA, ESP]]></description>
      <styleUrl>#icon-503-DB4436</styleUrl>
      <Point>
        <coordinates>
          1.83963060379028,41.6762280464172,0
        </coordinates>
      </Point>
    </Placemark>
    <Placemark>
      <name>12. Torrent del Conill</name>
      <styleUrl>#icon-503-DB4436-nodesc</styleUrl>
      <Point>
        <coordinates>
          1.83710337616503,41.6804132144898,0
        </coordinates>
      </Point>
    </Placemark>
    <Placemark>
      <name>13. Riera de Cornet</name>
      <styleUrl>#icon-503-DB4436-nodesc</styleUrl>
      <Point>
        <coordinates>
          1.82778580114245,41.6872907336801,0
        </coordinates>
      </Point>
    </Placemark>
    <Placemark>
      <name>14. Gorgues riera de Cornet</name>
      <styleUrl>#icon-503-DB4436-nodesc</styleUrl>
      <Point>
        <coordinates>
          1.8264795653522,41.6893194057047,0
        </coordinates>
      </Point>
    </Placemark>
    <Placemark>
      <name>15. Mas Cornet</name>
      <styleUrl>#icon-503-DB4436-nodesc</styleUrl>
      <Point>
        <coordinates>
          1.82280778884888,41.6911196708679,0
        </coordinates>
      </Point>
    </Placemark>
    <Placemark>
      <name>16. Mas Oller</name>
      <styleUrl>#icon-503-DB4436-nodesc</styleUrl>
      <Point>
        <coordinates>
          1.80295944213867,41.7045950889587,0
        </coordinates>
      </Point>
    </Placemark>
    <Placemark>
      <name>17. Raval dels Corrons</name>
      <styleUrl>#icon-503-DB4436-nodesc</styleUrl>
      <Point>
        <coordinates>
          1.81331561878324,41.7107531055808,0
        </coordinates>
      </Point>
    </Placemark>
    <Placemark>
      <name>18. Torre de Santa Caterina</name>
      <description>Repetidor, torre</description>
      <styleUrl>#icon-503-DB4436</styleUrl>
      <Point>
        <coordinates>
          1.82645559310913,41.7184352874756,0
        </coordinates>
      </Point>
    </Placemark>
    <Placemark>
      <name>19. Capella de la Mare de Déu de la Guia</name>
      <description><![CDATA[CAPELLA DE LA GUIA<br>MANRESA, BARCELONA, ESP]]></description>
      <styleUrl>#icon-503-DB4436</styleUrl>
      <Point>
        <coordinates>
          1.83042526245117,41.7187142372131,0
        </coordinates>
      </Point>
    </Placemark>
    <Placemark>
      <name>20. Creu de la Guia</name>
      <styleUrl>#icon-503-DB4436-nodesc</styleUrl>
      <Point>
        <coordinates>
          1.83028947561979,41.720262710005,0
        </coordinates>
      </Point>
    </Placemark>
    <Placemark>
      <name>21. Pont Vell de Manresa</name>
      <styleUrl>#icon-503-DB4436-nodesc</styleUrl>
      <Point>
        <coordinates>
          1.8299662694335,41.7206896003336,0
        </coordinates>
      </Point>
    </Placemark>
    <Placemark>
      <name>22. Capella de Sant Marc</name>
      <description><![CDATA[CAPELLA DE SANT MARC<br>MANRESA, BARCELONA, ESP]]></description>
      <styleUrl>#icon-503-DB4436</styleUrl>
      <Point>
        <coordinates>
          1.82969570159912,41.7214822769165,0
        </coordinates>
      </Point>
    </Placemark>
    <Placemark>
      <name>23. Basílica de Santa Maria de la Seu de Manresa</name>
      <description><![CDATA[LA SEU DE MANRESA<br>MANRESA, BARCELONA, ESP]]></description>
      <styleUrl>#icon-503-DB4436</styleUrl>
      <Point>
        <coordinates>
          1.82724952697754,41.7218899726868,0
        </coordinates>
      </Point>
    </Placemark>
    <Placemark>
      <name>24. Santuari de la Cova de Sant Ignasi</name>
      <styleUrl>#icon-503-DB4436-nodesc</styleUrl>
      <Point>
        <coordinates>
          1.83136940002441,41.7214822769165,0
        </coordinates>
      </Point>
    </Placemark>
    <Placemark>
      <name>MANRESA</name>
      <styleUrl>#icon-61-nodesc</styleUrl>
      <Point>
        <coordinates>
          1.83026407845318,41.7219680920243,0
        </coordinates>
      </Point>
    </Placemark>
  </Document>
</kml>
